[{"OBJECT_NAME":"OBJECT AD","OBJECT_ID":"2023-085AD","EPOCH":"2026-03-09T21:41:29.115744","MEAN_MOTION":15.31779154,"ECCENTRICITY":0.00101154,"INCLINATION":97.4841,"RA_OF_ASC_NODE":180.2223,"ARG_OF_PERICENTER":77.5993,"MEAN_ANOMALY":282.638,"EPHEMERIS_TYPE":0,"CLASSIFICATION_TYPE":"U","NORAD_CAT_ID":57031,"ELEMENT_SET_NO":999,"REV_AT_EPOCH":15156,"BSTAR":0.00068352515,"MEAN_MOTION_DOT":0.00020961,"MEAN_MOTION_DDOT":0},{"OBJECT_NAME":"STARLINK-32355","OBJECT_ID":"2024-191P","EPOCH":"2026-03-09T22:59:23.716896","MEAN_MOTION":15.27569755,"ECCENTRICITY":5.962e-5,"INCLINATION":43.0008,"RA_OF_ASC_NODE":156.7849,"ARG_OF_PERICENTER":284.8532,"MEAN_ANOMALY":75.2253,"EPHEMERIS_TYPE":0,"CLASSIFICATION_TYPE":"U","NORAD_CAT_ID":61634,"ELEMENT_SET_NO":999,"REV_AT_EPOCH":7753,"BSTAR":7.0839112e-5,"MEAN_MOTION_DOT":1.687e-5,"MEAN_MOTION_DDOT":0}]
